LEMUR-2-MJR092620       
1 58340U 23174CN  26117.21803138  .00013740  00000+0  31008-3 0  9999
2 58340  97.3963 206.3836 0005084 307.8766  52.2021 15.43325896137785
LEMUR-2-NIMBUS2000      
1 58899U 24022A   26117.10871641  .00017006  00000+0  45056-3 0  9990
2 58899  97.4172 326.5182 0007608 306.7829  53.2718 15.38389855124417
LEMUR-2-VALHALLA        
1 58900U 24022B   26117.09562752  .00016393  00000+0  43798-3 0  9990
2 58900  97.4171 326.5189 0008061 301.0155  59.0297 15.38135973124416
LEMUR-2-OBA-NI-JESU     
1 58902U 24022D   26117.12572444  .00218269  00000+0  12489-2 0  9993
2 58902  97.3946 338.0852 0003629 207.2762 152.8314 15.78230799125204
LEMUR-2-CAEL            
1 58903U 24022E   26117.08161458  .00017476  00000+0  44916-3 0  9996
2 58903  97.4156 327.3551 0006290 280.8991  79.1546 15.39329129124473
LEMUR-2-JOHNNYTRUONG    
1 59146U 24043BA  26116.97910390  .00036941  00000+0  51616-3 0  9996
2 59146  97.5330 265.6775 0003746  17.3842 342.7541 15.56764931120069
LEMUR-2-TOMATOKECHUP    
1 60471U 24149D   26117.21090253  .00013640  00000+0  40419-3 0  9991
2 60471  97.3800 199.1706 0003061  80.7792 279.3798 15.34967005 94348
LEMUR-2-STELLA          
1 60533U 24149BT  26117.16387345  .00015382  00000+0  93182-3 0  9995
2 60533  97.6739 199.4433 0001583 130.7703 229.3664 15.10680086 92795
LEMUR-2-MARHISYAM       
1 60536U 24149BW  26117.19280582  .00014353  00000+0  88189-3 0  9994
2 60536  97.6873 199.8672 0000534 302.1479  57.9698 15.10181212 92784
LEMUR-2-AHMED-ASRAR     
1 60576U 24149DN  26117.20797668  .00014352  00000+0  84940-3 0  9998
2 60576  97.6995 201.7843 0003118 147.4837 212.6585 15.11540232 92861
LEMUR-2-LLOYD           
1 60577U 24149DP  26117.17251703  .00014009  00000+0  90762-3 0  9998
2 60577  97.6747 198.3154 0002731 338.0459  22.0652 15.08239356 92700
LEMUR-2-SQUIRRELCOMM    
1 60578U 24149DQ  26117.18946188  .00007392  00000+0  50378-3 0  9994
2 60578  97.6705 198.2861 0005000 211.2046 148.8885 15.06540746 92728
LEMUR-2-SIERRINI        
1 60579U 24149DR  26117.20555846  .00013820  00000+0  85656-3 0  9995
2 60579  97.6839 199.6190 0004583  10.9834 349.1494 15.09864155 92763
LEMUR-2-WILSON          
1 62694U 25009CP  26117.16204420  .00003368  00000+0  31368-3 0  9992
2 62694  97.7027 196.5299 0003175 177.7027 182.4209 14.94936917 69733
LEMUR-2-STAR-FOX        
1 62696U 25009CR  26116.46588515  .00008585  00000+0  66382-3 0  9996
2 62696  97.6923 198.5042 0001292  89.1450 270.9923 15.01738099 69793
LEMUR-2-ARIANNA         
1 62699U 25009CU  26117.19562331  .00010203  00000+0  78952-3 0  9994
2 62699  97.6844 199.0450 0000942  50.1574 309.9733 15.01658871 69907
