[{"OBJECT_NAME":"LEMUR-2-MJR092620","OBJECT_ID":"2023-174CN","EPOCH":"2026-04-27T05:13:57.911232","MEAN_MOTION":15.43325896,"ECCENTRICITY":0.0005084,"INCLINATION":97.3963,"RA_OF_ASC_NODE":206.3836,"ARG_OF_PERICENTER":307.8766,"MEAN_ANOMALY":52.2021,"EPHEMERIS_TYPE":0,"CLASSIFICATION_TYPE":"U","NORAD_CAT_ID":58340,"ELEMENT_SET_NO":999,"REV_AT_EPOCH":13778,"BSTAR":0.00031008,"MEAN_MOTION_DOT":0.0001374,"MEAN_MOTION_DDOT":0},{"OBJECT_NAME":"LEMUR-2-NIMBUS2000","OBJECT_ID":"2024-022A","EPOCH":"2026-04-27T02:36:33.097824","MEAN_MOTION":15.38389855,"ECCENTRICITY":0.0007608,"INCLINATION":97.4172,"RA_OF_ASC_NODE":326.5182,"ARG_OF_PERICENTER":306.7829,"MEAN_ANOMALY":53.2718,"EPHEMERIS_TYPE":0,"CLASSIFICATION_TYPE":"U","NORAD_CAT_ID":58899,"ELEMENT_SET_NO":999,"REV_AT_EPOCH":12441,"BSTAR":0.00045056,"MEAN_MOTION_DOT":0.00017006,"MEAN_MOTION_DDOT":0},{"OBJECT_NAME":"LEMUR-2-VALHALLA","OBJECT_ID":"2024-022B","EPOCH":"2026-04-27T02:17:42.217728","MEAN_MOTION":15.38135973,"ECCENTRICITY":0.0008061,"INCLINATION":97.4171,"RA_OF_ASC_NODE":326.5189,"ARG_OF_PERICENTER":301.0155,"MEAN_ANOMALY":59.0297,"EPHEMERIS_TYPE":0,"CLASSIFICATION_TYPE":"U","NORAD_CAT_ID":58900,"ELEMENT_SET_NO":999,"REV_AT_EPOCH":12441,"BSTAR":0.00043798,"MEAN_MOTION_DOT":0.00016393,"MEAN_MOTION_DDOT":0},{"OBJECT_NAME":"LEMUR-2-OBA-NI-JESU","OBJECT_ID":"2024-022D","EPOCH":"2026-04-27T03:01:02.591616","MEAN_MOTION":15.78230799,"ECCENTRICITY":0.0003629,"INCLINATION":97.3946,"RA_OF_ASC_NODE":338.0852,"ARG_OF_PERICENTER":207.2762,"MEAN_ANOMALY":152.8314,"EPHEMERIS_TYPE":0,"CLASSIFICATION_TYPE":"U","NORAD_CAT_ID":58902,"ELEMENT_SET_NO":999,"REV_AT_EPOCH":12520,"BSTAR":0.0012489,"MEAN_MOTION_DOT":0.00218269,"MEAN_MOTION_DDOT":0},{"OBJECT_NAME":"LEMUR-2-CAEL","OBJECT_ID":"2024-022E","EPOCH":"2026-04-27T01:57:31.499712","MEAN_MOTION":15.39329129,"ECCENTRICITY":0.000629,"INCLINATION":97.4156,"RA_OF_ASC_NODE":327.3551,"ARG_OF_PERICENTER":280.8991,"MEAN_ANOMALY":79.1546,"EPHEMERIS_TYPE":0,"CLASSIFICATION_TYPE":"U","NORAD_CAT_ID":58903,"ELEMENT_SET_NO":999,"REV_AT_EPOCH":12447,"BSTAR":0.00044916,"MEAN_MOTION_DOT":0.00017476,"MEAN_MOTION_DDOT":0},{"OBJECT_NAME":"LEMUR-2-JOHNNYTRUONG","OBJECT_ID":"2024-043BA","EPOCH":"2026-04-26T23:29:54.576960","MEAN_MOTION":15.56764931,"ECCENTRICITY":0.0003746,"INCLINATION":97.533,"RA_OF_ASC_NODE":265.6775,"ARG_OF_PERICENTER":17.3842,"MEAN_ANOMALY":342.7541,"EPHEMERIS_TYPE":0,"CLASSIFICATION_TYPE":"U","NORAD_CAT_ID":59146,"ELEMENT_SET_NO":999,"REV_AT_EPOCH":12006,"BSTAR":0.00051616,"MEAN_MOTION_DOT":0.00036941,"MEAN_MOTION_DDOT":0},{"OBJECT_NAME":"LEMUR-2-TOMATOKECHUP","OBJECT_ID":"2024-149D","EPOCH":"2026-04-27T05:03:41.978592","MEAN_MOTION":15.34967005,"ECCENTRICITY":0.0003061,"INCLINATION":97.38,"RA_OF_ASC_NODE":199.1706,"ARG_OF_PERICENTER":80.7792,"MEAN_ANOMALY":279.3798,"EPHEMERIS_TYPE":0,"CLASSIFICATION_TYPE":"U","NORAD_CAT_ID":60471,"ELEMENT_SET_NO":999,"REV_AT_EPOCH":9434,"BSTAR":0.00040419,"MEAN_MOTION_DOT":0.0001364,"MEAN_MOTION_DDOT":0},{"OBJECT_NAME":"LEMUR-2-STELLA","OBJECT_ID":"2024-149BT","EPOCH":"2026-04-27T03:55:58.666080","MEAN_MOTION":15.10680086,"ECCENTRICITY":0.0001583,"INCLINATION":97.6739,"RA_OF_ASC_NODE":199.4433,"ARG_OF_PERICENTER":130.7703,"MEAN_ANOMALY":229.3664,"EPHEMERIS_TYPE":0,"CLASSIFICATION_TYPE":"U","NORAD_CAT_ID":60533,"ELEMENT_SET_NO":999,"REV_AT_EPOCH":9279,"BSTAR":0.00093182,"MEAN_MOTION_DOT":0.00015382,"MEAN_MOTION_DDOT":0},{"OBJECT_NAME":"LEMUR-2-MARHISYAM","OBJECT_ID":"2024-149BW","EPOCH":"2026-04-27T04:37:38.422848","MEAN_MOTION":15.10181212,"ECCENTRICITY":5.34e-5,"INCLINATION":97.6873,"RA_OF_ASC_NODE":199.8672,"ARG_OF_PERICENTER":302.1479,"MEAN_ANOMALY":57.9698,"EPHEMERIS_TYPE":0,"CLASSIFICATION_TYPE":"U","NORAD_CAT_ID":60536,"ELEMENT_SET_NO":999,"REV_AT_EPOCH":9278,"BSTAR":0.00088189,"MEAN_MOTION_DOT":0.00014353,"MEAN_MOTION_DDOT":0},{"OBJECT_NAME":"LEMUR-2-AHMED-ASRAR","OBJECT_ID":"2024-149DN","EPOCH":"2026-04-27T04:59:29.185152","MEAN_MOTION":15.11540232,"ECCENTRICITY":0.0003118,"INCLINATION":97.6995,"RA_OF_ASC_NODE":201.7843,"ARG_OF_PERICENTER":147.4837,"MEAN_ANOMALY":212.6585,"EPHEMERIS_TYPE":0,"CLASSIFICATION_TYPE":"U","NORAD_CAT_ID":60576,"ELEMENT_SET_NO":999,"REV_AT_EPOCH":9286,"BSTAR":0.0008494,"MEAN_MOTION_DOT":0.00014352,"MEAN_MOTION_DDOT":0},{"OBJECT_NAME":"LEMUR-2-LLOYD","OBJECT_ID":"2024-149DP","EPOCH":"2026-04-27T04:08:25.471392","MEAN_MOTION":15.08239356,"ECCENTRICITY":0.0002731,"INCLINATION":97.6747,"RA_OF_ASC_NODE":198.3154,"ARG_OF_PERICENTER":338.0459,"MEAN_ANOMALY":22.0652,"EPHEMERIS_TYPE":0,"CLASSIFICATION_TYPE":"U","NORAD_CAT_ID":60577,"ELEMENT_SET_NO":999,"REV_AT_EPOCH":9270,"BSTAR":0.00090762,"MEAN_MOTION_DOT":0.00014009,"MEAN_MOTION_DDOT":0},{"OBJECT_NAME":"LEMUR-2-SQUIRRELCOMM","OBJECT_ID":"2024-149DQ","EPOCH":"2026-04-27T04:32:49.506432","MEAN_MOTION":15.06540746,"ECCENTRICITY":0.0005,"INCLINATION":97.6705,"RA_OF_ASC_NODE":198.2861,"ARG_OF_PERICENTER":211.2046,"MEAN_ANOMALY":148.8885,"EPHEMERIS_TYPE":0,"CLASSIFICATION_TYPE":"U","NORAD_CAT_ID":60578,"ELEMENT_SET_NO":999,"REV_AT_EPOCH":9272,"BSTAR":0.00050378,"MEAN_MOTION_DOT":7.392e-5,"MEAN_MOTION_DDOT":0},{"OBJECT_NAME":"LEMUR-2-SIERRINI","OBJECT_ID":"2024-149DR","EPOCH":"2026-04-27T04:56:00.250944","MEAN_MOTION":15.09864155,"ECCENTRICITY":0.0004583,"INCLINATION":97.6839,"RA_OF_ASC_NODE":199.619,"ARG_OF_PERICENTER":10.9834,"MEAN_ANOMALY":349.1494,"EPHEMERIS_TYPE":0,"CLASSIFICATION_TYPE":"U","NORAD_CAT_ID":60579,"ELEMENT_SET_NO":999,"REV_AT_EPOCH":9276,"BSTAR":0.00085656,"MEAN_MOTION_DOT":0.0001382,"MEAN_MOTION_DDOT":0},{"OBJECT_NAME":"LEMUR-2-WILSON","OBJECT_ID":"2025-009CP","EPOCH":"2026-04-27T03:53:20.618880","MEAN_MOTION":14.94936917,"ECCENTRICITY":0.0003175,"INCLINATION":97.7027,"RA_OF_ASC_NODE":196.5299,"ARG_OF_PERICENTER":177.7027,"MEAN_ANOMALY":182.4209,"EPHEMERIS_TYPE":0,"CLASSIFICATION_TYPE":"U","NORAD_CAT_ID":62694,"ELEMENT_SET_NO":999,"REV_AT_EPOCH":6973,"BSTAR":0.00031368,"MEAN_MOTION_DOT":3.368e-5,"MEAN_MOTION_DDOT":0},{"OBJECT_NAME":"LEMUR-2-STAR-FOX","OBJECT_ID":"2025-009CR","EPOCH":"2026-04-26T11:10:52.476960","MEAN_MOTION":15.01738099,"ECCENTRICITY":0.00012928,"INCLINATION":97.6923,"RA_OF_ASC_NODE":198.5042,"ARG_OF_PERICENTER":89.145,"MEAN_ANOMALY":270.9923,"EPHEMERIS_TYPE":0,"CLASSIFICATION_TYPE":"U","NORAD_CAT_ID":62696,"ELEMENT_SET_NO":999,"REV_AT_EPOCH":6979,"BSTAR":0.00066381705,"MEAN_MOTION_DOT":8.585e-5,"MEAN_MOTION_DDOT":0},{"OBJECT_NAME":"LEMUR-2-ARIANNA","OBJECT_ID":"2025-009CU","EPOCH":"2026-04-27T04:41:41.853984","MEAN_MOTION":15.01658871,"ECCENTRICITY":9.42e-5,"INCLINATION":97.6844,"RA_OF_ASC_NODE":199.045,"ARG_OF_PERICENTER":50.1574,"MEAN_ANOMALY":309.9733,"EPHEMERIS_TYPE":0,"CLASSIFICATION_TYPE":"U","NORAD_CAT_ID":62699,"ELEMENT_SET_NO":999,"REV_AT_EPOCH":6990,"BSTAR":0.00078952,"MEAN_MOTION_DOT":0.00010203,"MEAN_MOTION_DDOT":0}]
